[
    {
        "Altitude(m)": 604969.0891898836,
        "Argument of Periapsis(deg)": 0.0,
        "Eccentricity": 0.0,
        "Inclination(deg)": 60.0,
        "Latitude(deg)": -0.0927054008517775,
        "Longitude(deg)": -135.0224725103815,
        "Mean Anomaly(deg)": 0.0,
        "RAAN(deg)": 325.0,
        "Satellite Name": "Test1 1430",
        "Satellite Number": 1430,
        "Semi-Major Axis(m)": 6980739.136638005,
        "Time(s)": 0
    },
    {
        "Altitude(m)": 604900.0283721623,
        "Argument of Periapsis(deg)": 0.00010418945913296404,
        "Eccentricity": 0.0,
        "Inclination(deg)": 60.0,
        "Latitude(deg)": 0.4477201571862238,
        "Longitude(deg)": -134.75434881030614,
        "Mean Anomaly(deg)": 0.620106145461853,
        "RAAN(deg)": 324.99957995086027,
        "Satellite Name": "Test1 1430",
        "Satellite Number": 1430,
        "Semi-Major Axis(m)": 6980739.136638005,
        "Time(s)": 10
    }
]